{
  "type": "FeatureCollection",
  "features": [
    {
      "type": "Feature",
      "properties": {
        "norad_id": 41866,
        "name": "GOES 16",
        "group": "weather",
        "lat": 0.0029729561045634995,
        "lon": 74.24670137862574,
        "alt_km": 35800.374718452345,
        "timestamp": "2025-12-02T07:10:08.751765+00:00",
        "meta_object_name": "GOES 16",
        "meta_object_id": "2016-071A",
        "meta_epoch": "2025-12-01T19:39:12.392352",
        "meta_mean_motion": 1.00270895,
        "meta_eccentricity": 0.0003316,
        "meta_inclination": 0.0541,
        "meta_ra_of_asc_node": 109.2786,
        "meta_arg_of_pericenter": 146.7802,
        "meta_mean_anomaly": 5.0091,
        "meta_ephemeris_type": 0,
        "meta_classification_type": "U",
        "meta_norad_cat_id": 41866,
        "meta_element_set_no": 999,
        "meta_rev_at_epoch": 3312,
        "meta_bstar": 0,
        "meta_mean_motion_dot": -7e-07,
        "meta_mean_motion_ddot": 0,
        "tle_line1": "1 41866U 16071A   25335.81889343 -.00000070  00000+0  00000+0 0  9998",
        "tle_line2": "2 41866   0.0541 109.2786 0003316 146.7802   5.0091  1.00270895 33127"
      },
      "geometry": {
        "type": "Point",
        "coordinates": [
          74.24670137862574,
          0.0029729561045634995
        ]
      }
    },
    {
      "type": "Feature",
      "properties": {
        "norad_id": 41882,
        "name": "FENGYUN 4A",
        "group": "weather",
        "lat": -1.1795110004948814,
        "lon": -57.34295492941073,
        "alt_km": 35780.222169790504,
        "timestamp": "2025-12-02T07:10:08.751777+00:00",
        "meta_object_name": "FENGYUN 4A",
        "meta_object_id": "2016-077A",
        "meta_epoch": "2025-12-01T20:01:38.686656",
        "meta_mean_motion": 1.00279129,
        "meta_eccentricity": 0.000499,
        "meta_inclination": 1.8191,
        "meta_ra_of_asc_node": 82.4954,
        "meta_arg_of_pericenter": 140.9222,
        "meta_mean_anomaly": 271.6277,
        "meta_ephemeris_type": 0,
        "meta_classification_type": "U",
        "meta_norad_cat_id": 41882,
        "meta_element_set_no": 999,
        "meta_rev_at_epoch": 3295,
        "meta_bstar": 0,
        "meta_mean_motion_dot": -3.35e-06,
        "meta_mean_motion_ddot": 0,
        "tle_line1": "1 41882U 16077A   25335.83447554 -.00000335  00000+0  00000+0 0  9992",
        "tle_line2": "2 41882   1.8191  82.4954 0004990 140.9222 271.6277  1.00279129 32951"
      },
      "geometry": {
        "type": "Point",
        "coordinates": [
          -57.34295492941073,
          -1.1795110004948814
        ]
      }
    },
    {
      "type": "Feature",
      "properties": {
        "norad_id": 41884,
        "name": "CYGFM05",
        "group": "weather",
        "lat": 30.705107077975843,
        "lon": 173.524709794226,
        "alt_km": 413.5540310428287,
        "timestamp": "2025-12-02T07:10:08.751788+00:00",
        "meta_object_name": "CYGFM05",
        "meta_object_id": "2016-078A",
        "meta_epoch": "2025-12-01T18:30:29.634048",
        "meta_mean_motion": 15.47019766,
        "meta_eccentricity": 0.0009427,
        "meta_inclination": 34.9578,
        "meta_ra_of_asc_node": 118.747,
        "meta_arg_of_pericenter": 77.0168,
        "meta_mean_anomaly": 283.1606,
        "meta_ephemeris_type": 0,
        "meta_classification_type": "U",
        "meta_norad_cat_id": 41884,
        "meta_element_set_no": 999,
        "meta_rev_at_epoch": 49806,
        "meta_bstar": 0.00040108,
        "meta_mean_motion_dot": 0.00020925,
        "meta_mean_motion_ddot": 0,
        "tle_line1": "1 41884U 16078A   25335.77117632  .00020925  00000+0  40108-3 0  9992",
        "tle_line2": "2 41884  34.9578 118.7470 0009427  77.0168 283.1606 15.47019766498061"
      },
      "geometry": {
        "type": "Point",
        "coordinates": [
          173.524709794226,
          30.705107077975843
        ]
      }
    },
    {
      "type": "Feature",
      "properties": {
        "norad_id": 41885,
        "name": "CYGFM04",
        "group": "weather",
        "lat": -11.967986324176584,
        "lon": -71.94340830279441,
        "alt_km": 417.9325365898976,
        "timestamp": "2025-12-02T07:10:08.751799+00:00",
        "meta_object_name": "CYGFM04",
        "meta_object_id": "2016-078B",
        "meta_epoch": "2025-12-01T17:56:12.662592",
        "meta_mean_motion": 15.49568378,
        "meta_eccentricity": 0.0008511,
        "meta_inclination": 34.9335,
        "meta_ra_of_asc_node": 93.9902,
        "meta_arg_of_pericenter": 107.3398,
        "meta_mean_anomaly": 252.8256,
        "meta_ephemeris_type": 0,
        "meta_classification_type": "U",
        "meta_norad_cat_id": 41885,
        "meta_element_set_no": 999,
        "meta_rev_at_epoch": 49823,
        "meta_bstar": 0.0011322,
        "meta_mean_motion_dot": 0.00065033,
        "meta_mean_motion_ddot": 0,
        "tle_line1": "1 41885U 16078B   25335.74736878  .00065033  00000+0  11322-2 0  9993",
        "tle_line2": "2 41885  34.9335  93.9902 0008511 107.3398 252.8256 15.49568378498235"
      },
      "geometry": {
        "type": "Point",
        "coordinates": [
          -71.94340830279441,
          -11.967986324176584
        ]
      }
    },
    {
      "type": "Feature",
      "properties": {
        "norad_id": 41886,
        "name": "CYGFM02",
        "group": "weather",
        "lat": 9.606755341282966,
        "lon": -105.19209879442232,
        "alt_km": 406.9722828702261,
        "timestamp": "2025-12-02T07:10:08.751809+00:00",
        "meta_object_name": "CYGFM02",
        "meta_object_id": "2016-078C",
        "meta_epoch": "2025-12-01T18:06:46.148256",
        "meta_mean_motion": 15.5099995,
        "meta_eccentricity": 0.0010129,
        "meta_inclination": 34.9427,
        "meta_ra_of_asc_node": 92.4094,
        "meta_arg_of_pericenter": 106.5593,
        "meta_mean_anomaly": 253.6242,
        "meta_ephemeris_type": 0,
        "meta_classification_type": "U",
        "meta_norad_cat_id": 41886,
        "meta_element_set_no": 999,
        "meta_rev_at_epoch": 49836,
        "meta_bstar": 0.0004276,
        "meta_mean_motion_dot": 0.00025703,
        "meta_mean_motion_ddot": 0,
        "tle_line1": "1 41886U 16078C   25335.75470079  .00025703  00000+0  42760-3 0  9994",
        "tle_line2": "2 41886  34.9427  92.4094 0010129 106.5593 253.6242 15.50999950498364"
      },
      "geometry": {
        "type": "Point",
        "coordinates": [
          -105.19209879442232,
          9.606755341282966
        ]
      }
    },
    {
      "type": "Feature",
      "properties": {
        "norad_id": 41887,
        "name": "CYGFM01",
        "group": "weather",
        "lat": 34.81332427954004,
        "lon": -157.41262598193484,
        "alt_km": 411.2554594558569,
        "timestamp": "2025-12-02T07:10:08.751820+00:00",
        "meta_object_name": "CYGFM01",
        "meta_object_id": "2016-078D",
        "meta_epoch": "2025-12-01T18:24:55.875168",
        "meta_mean_motion": 15.47580831,
        "meta_eccentricity": 0.0009136,
        "meta_inclination": 34.9408,
        "meta_ra_of_asc_node": 121.1991,
        "meta_arg_of_pericenter": 68.019,
        "meta_mean_anomaly": 292.1502,
        "meta_ephemeris_type": 0,
        "meta_classification_type": "U",
        "meta_norad_cat_id": 41887,
        "meta_element_set_no": 999,
        "meta_rev_at_epoch": 49800,
        "meta_bstar": 0.00039114,
        "meta_mean_motion_dot": 0.00020807,
        "meta_mean_motion_ddot": 0,
        "tle_line1": "1 41887U 16078D   25335.76731337  .00020807  00000+0  39114-3 0  9992",
        "tle_line2": "2 41887  34.9408 121.1991 0009136  68.0190 292.1502 15.47580831498009"
      },
      "geometry": {
        "type": "Point",
        "coordinates": [
          -157.41262598193484,
          34.81332427954004
        ]
      }
    },
    {
      "type": "Feature",
      "properties": {
        "norad_id": 41888,
        "name": "CYGFM08",
        "group": "weather",
        "lat": 34.92171658288164,
        "lon": -170.05659995586393,
        "alt_km": 406.744576908236,
        "timestamp": "2025-12-02T07:10:08.751830+00:00",
        "meta_object_name": "CYGFM08",
        "meta_object_id": "2016-078E",
        "meta_epoch": "2025-12-01T18:24:36.537984",
        "meta_mean_motion": 15.48751854,
        "meta_eccentricity": 0.001064,
        "meta_inclination": 34.9442,
        "meta_ra_of_asc_node": 104.3169,
        "meta_arg_of_pericenter": 94.5442,
        "meta_mean_anomaly": 265.6495,
        "meta_ephemeris_type": 0,
        "meta_classification_type": "U",
        "meta_norad_cat_id": 41888,
        "meta_element_set_no": 999,
        "meta_rev_at_epoch": 49823,
        "meta_bstar": 0.00042339,
        "meta_mean_motion_dot": 0.00023493,
        "meta_mean_motion_ddot": 0,
        "tle_line1": "1 41888U 16078E   25335.76708956  .00023493  00000+0  42339-3 0  9991",
        "tle_line2": "2 41888  34.9442 104.3169 0010640  94.5442 265.6495 15.48751854498231"
      },
      "geometry": {
        "type": "Point",
        "coordinates": [
          -170.05659995586393,
          34.92171658288164
        ]
      }
    }
  ]
}